[
    {
        "Altitude(m)": 554979.482604001,
        "Argument of Periapsis(deg)": 0.033114955553567506,
        "Eccentricity": 0.0,
        "Inclination(deg)": 53.0,
        "Latitude(deg)": -4.794016777864348,
        "Longitude(deg)": 82.40863695679136,
        "Mean Anomaly(deg)": -5.905535662112014,
        "RAAN(deg)": 189.95071684264008,
        "Satellite Name": "Starlink Shell 1 854",
        "Satellite Number": 854,
        "Semi-Major Axis(m)": 6931778.249405717,
        "Time(s)": 950
    },
    {
        "Altitude(m)": 554889.3598856082,
        "Argument of Periapsis(deg)": 0.03346353403307874,
        "Eccentricity": 0.0,
        "Inclination(deg)": 53.0,
        "Latitude(deg)": -4.291096139828224,
        "Longitude(deg)": 82.74629689015426,
        "Mean Anomaly(deg)": -5.278704458555344,
        "RAAN(deg)": 189.9501980725626,
        "Satellite Name": "Starlink Shell 1 854",
        "Satellite Number": 854,
        "Semi-Major Axis(m)": 6931778.249405717,
        "Time(s)": 960
    },
    {
        "Altitude(m)": 554801.9180026805,
        "Argument of Periapsis(deg)": 0.03381211251258998,
        "Eccentricity": 0.0,
        "Inclination(deg)": 53.0,
        "Latitude(deg)": -3.787969812967254,
        "Longitude(deg)": 83.08346999941445,
        "Mean Anomaly(deg)": -4.651873254998572,
        "RAAN(deg)": 189.94967930248512,
        "Satellite Name": "Starlink Shell 1 854",
        "Satellite Number": 854,
        "Semi-Major Axis(m)": 6931778.249405717,
        "Time(s)": 970
    },
    {
        "Altitude(m)": 554717.1757191975,
        "Argument of Periapsis(deg)": 0.034160690992101214,
        "Eccentricity": 0.0,
        "Inclination(deg)": 53.0,
        "Latitude(deg)": -3.2846610370649727,
        "Longitude(deg)": 83.42021457498194,
        "Mean Anomaly(deg)": -4.025042051441927,
        "RAAN(deg)": 189.9491605324077,
        "Satellite Name": "Starlink Shell 1 854",
        "Satellite Number": 854,
        "Semi-Major Axis(m)": 6931778.249405717,
        "Time(s)": 980
    },
    {
        "Altitude(m)": 554635.1504722814,
        "Argument of Periapsis(deg)": 0.034509269471612446,
        "Eccentricity": 0.0,
        "Inclination(deg)": 53.0,
        "Latitude(deg)": -2.781192967148412,
        "Longitude(deg)": 83.75658922715675,
        "Mean Anomaly(deg)": -3.398210847885181,
        "RAAN(deg)": 189.94864176233023,
        "Satellite Name": "Starlink Shell 1 854",
        "Satellite Number": 854,
        "Semi-Major Axis(m)": 6931778.249405717,
        "Time(s)": 990
    }
]